{"type": "FeatureCollection", "features": [ {"type": "Feature", "properties": {"norad_id": 43648, "name": "BEIDOU-3 M15 (C34)", "group": "gnss", "lat": 53.06855127027661, "lon": 52.74551625978637, "alt_km": 21519.791649458424, "timestamp": "2025-12-27T11:23:20.141219+00:00", "meta": {"OBJECT_NAME": "BEIDOU-3 M15 (C34)", "OBJECT_ID": "2018-078B", "EPOCH": "2025-12-26T06:02:24.001152", "MEAN_MOTION": 1.86232322, "ECCENTRICITY": 0.0004086, "INCLINATION": 54.2454, "RA_OF_ASC_NODE": 306.0502, "ARG_OF_PERICENTER": 19.6229, "MEAN_ANOMALY": 340.4025, "EPHEMERIS_TYPE": 0, "CLASSIFICATION_TYPE": "U", "NORAD_CAT_ID": 43648, "ELEMENT_SET_NO": 999, "REV_AT_EPOCH": 4895, "BSTAR": 0, "MEAN_MOTION_DOT": -5.6e-07, "MEAN_MOTION_DDOT": 0}, "tle": {"line1": "1 43648U 18078B   25360.25166668 -.00000056  00000+0  00000+0 0  9995", "line2": "2 43648  54.2454 306.0502 0004086  19.6229 340.4025  1.86232322 48957"}}, "geometry": {"type": "Point", "coordinates": [52.74551625978637, 53.06855127027661]}}, {"type": "Feature", "properties": {"norad_id": 43683, "name": "BEIDOU-3 G1 (C59)", "group": "gnss", "lat": -2.1664557220502845, "lon": 47.02366513663126, "alt_km": 35789.02844930908, "timestamp": "2025-12-27T11:23:20.141231+00:00", "meta": {"OBJECT_NAME": "BEIDOU-3 G1 (C59)", "OBJECT_ID": "2018-085A", "EPOCH": "2025-12-27T06:49:10.839936", "MEAN_MOTION": 1.00276051, "ECCENTRICITY": 0.000189, "INCLINATION": 2.6422, "RA_OF_ASC_NODE": 102.486, "ARG_OF_PERICENTER": 63.5118, "MEAN_ANOMALY": 172.2917, "EPHEMERIS_TYPE": 0, "CLASSIFICATION_TYPE": "U", "NORAD_CAT_ID": 43683, "ELEMENT_SET_NO": 999, "REV_AT_EPOCH": 2633, "BSTAR": 0, "MEAN_MOTION_DOT": -2.55e-06, "MEAN_MOTION_DDOT": 0}, "tle": {"line1": "1 43683U 18085A   25361.28415324 -.00000255  00000+0  00000+0 0  9993", "line2": "2 43683   2.6422 102.4860 0001890  63.5118 172.2917  1.00276051 26330"}}, "geometry": {"type": "Point", "coordinates": [47.02366513663126, -2.1664557220502845]}}, {"type": "Feature", "properties": {"norad_id": 43687, "name": "COSMOS 2529 (757)", "group": "gnss", "lat": 28.781773753670176, "lon": -146.25587706129627, "alt_km": 19139.811041823617, "timestamp": "2025-12-27T11:23:20.141243+00:00", "meta": {"OBJECT_NAME": "COSMOS 2529 (757)", "OBJECT_ID": "2018-086A", "EPOCH": "2025-12-26T23:06:55.461888", "MEAN_MOTION": 2.13102033, "ECCENTRICITY": 0.0006849, "INCLINATION": 64.293, "RA_OF_ASC_NODE": 198.4076, "ARG_OF_PERICENTER": 253.3441, "MEAN_ANOMALY": 106.6358, "EPHEMERIS_TYPE": 0, "CLASSIFICATION_TYPE": "U", "NORAD_CAT_ID": 43687, "ELEMENT_SET_NO": 999, "REV_AT_EPOCH": 5561, "BSTAR": 0, "MEAN_MOTION_DOT": 1.18e-06, "MEAN_MOTION_DDOT": 0}, "tle": {"line1": "1 43687U 18086A   25360.96314192  .00000118  00000+0  00000+0 0  9990", "line2": "2 43687  64.2930 198.4076 0006849 253.3441 106.6358  2.13102033 55619"}}, "geometry": {"type": "Point", "coordinates": [-146.25587706129627, 28.781773753670176]}}, {"type": "Feature", "properties": {"norad_id": 43706, "name": "BEIDOU-3 M17 (C36)", "group": "gnss", "lat": -5.290823043953791, "lon": -175.71322518427618, "alt_km": 21517.753412727274, "timestamp": "2025-12-27T11:23:20.141256+00:00", "meta": {"OBJECT_NAME": "BEIDOU-3 M17 (C36)", "OBJECT_ID": "2018-093A", "EPOCH": "2025-12-26T03:36:39.806208", "MEAN_MOTION": 1.86228273, "ECCENTRICITY": 0.00059945, "INCLINATION": 54.1735, "RA_OF_ASC_NODE": 188.1665, "ARG_OF_PERICENTER": 306.9478, "MEAN_ANOMALY": 238.7851, "EPHEMERIS_TYPE": 0, "CLASSIFICATION_TYPE": "U", "NORAD_CAT_ID": 43706, "ELEMENT_SET_NO": 999, "REV_AT_EPOCH": 4831, "BSTAR": 0, "MEAN_MOTION_DOT": 1.19e-06, "MEAN_MOTION_DDOT": 0}, "tle": {"line1": "1 43706U 18093A   25360.15046072  .00000119  00000+0  00000+0 0  9991", "line2": "2 43706  54.1735 188.1665 0005994 306.9478 238.7851  1.86228273 48315"}}, "geometry": {"type": "Point", "coordinates": [-175.71322518427618, -5.290823043953791]}}, {"type": "Feature", "properties": {"norad_id": 43707, "name": "BEIDOU-3 M18 (C37)", "group": "gnss", "lat": 53.9824729705274, "lon": -88.17686142363243, "alt_km": 21522.86002074566, "timestamp": "2025-12-27T11:23:20.141269+00:00", "meta": {"OBJECT_NAME": "BEIDOU-3 M18 (C37)", "OBJECT_ID": "2018-093B", "EPOCH": "2025-12-26T19:24:55.355328", "MEAN_MOTION": 1.86226544, "ECCENTRICITY": 0.0006098, "INCLINATION": 54.1738, "RA_OF_ASC_NODE": 188.1361, "ARG_OF_PERICENTER": 353.9736, "MEAN_ANOMALY": 6.054, "EPHEMERIS_TYPE": 0, "CLASSIFICATION_TYPE": "U", "NORAD_CAT_ID": 43707, "ELEMENT_SET_NO": 999, "REV_AT_EPOCH": 4832, "BSTAR": 0, "MEAN_MOTION_DOT": 1.25e-06, "MEAN_MOTION_DDOT": 0}, "tle": {"line1": "1 43707U 18093B   25360.80897402  .00000125  00000+0  00000+0 0  9992", "line2": "2 43707  54.1738 188.1361 0006098 353.9736   6.0540  1.86226544 48328"}}, "geometry": {"type": "Point", "coordinates": [-88.17686142363243, 53.9824729705274]}}, {"type": "Feature", "properties": {"norad_id": 43873, "name": "GPS BIII-1  (PRN 04)", "group": "gnss", "lat": -14.446809258989191, "lon": 88.80439399975629, "alt_km": 20268.750494583113, "timestamp": "2025-12-27T11:23:20.141280+00:00", "meta": {"OBJECT_NAME": "GPS BIII-1  (PRN 04)", "OBJECT_ID": "2018-109A", "EPOCH": "2025-12-26T12:23:38.434848", "MEAN_MOTION": 2.00553927, "ECCENTRICITY": 0.0037609, "INCLINATION": 55.5742, "RA_OF_ASC_NODE": 99.0034, "ARG_OF_PERICENTER": 195.6344, "MEAN_ANOMALY": 174.7569, "EPHEMERIS_TYPE": 0, "CLASSIFICATION_TYPE": "U", "NORAD_CAT_ID": 43873, "ELEMENT_SET_NO": 999, "REV_AT_EPOCH": 5161, "BSTAR": 0, "MEAN_MOTION_DOT": 1.3e-07, "MEAN_MOTION_DDOT": 0}, "tle": {"line1": "1 43873U 18109A   25360.51641707  .00000013  00000+0  00000+0 0  9993", "line2": "2 43873  55.5742  99.0034 0037609 195.6344 174.7569  2.00553927 51612"}}, "geometry": {"type": "Point", "coordinates": [88.80439399975629, -14.446809258989191]}}, {"type": "Feature", "properties": {"norad_id": 44231, "name": "BEIDOU-2 G8 (C01)", "group": "gnss", "lat": -0.6533066081201011, "lon": 51.663569544410905, "alt_km": 35778.58420092423, "timestamp": "2025-12-27T11:23:20.141292+00:00", "meta": {"OBJECT_NAME": "BEIDOU-2 G8 (C01)", "OBJECT_ID": "2019-027A", "EPOCH": "2025-12-27T05:07:43.057056", "MEAN_MOTION": 1.00273552, "ECCENTRICITY": 0.0008351, "INCLINATION": 1.6963, "RA_OF_ASC_NODE": 74.7446, "ARG_OF_PERICENTER": 258.7361, "MEAN_ANOMALY": 343.9236, "EPHEMERIS_TYPE": 0, "CLASSIFICATION_TYPE": "U", "NORAD_CAT_ID": 44231, "ELEMENT_SET_NO": 999, "REV_AT_EPOCH": 2435, "BSTAR": 0, "MEAN_MOTION_DOT": -2.25e-06, "MEAN_MOTION_DDOT": 0}, "tle": {"line1": "1 44231U 19027A   25361.21369279 -.00000225  00000+0  00000+0 0  9997", "line2": "2 44231   1.6963  74.7446 0008351 258.7361 343.9236  1.00273552 24351"}}, "geometry": {"type": "Point", "coordinates": [51.663569544410905, -0.6533066081201011]}}, {"type": "Feature", "properties": {"norad_id": 44299, "name": "COSMOS 2534 (758)", "group": "gnss", "lat": 12.013843061240834, "lon": 12.532910901400879, "alt_km": 19138.87646642991, "timestamp": "2025-12-27T11:23:20.141304+00:00", "meta": {"OBJECT_NAME": "COSMOS 2534 (758)", "OBJECT_ID": "2019-030A", "EPOCH": "2025-12-27T00:38:16.600128", "MEAN_MOTION": 2.13102128, "ECCENTRICITY": 0.0008617, "INCLINATION": 64.3665, "RA_OF_ASC_NODE": 198.4112, "ARG_OF_PERICENTER": 283.8856, "MEAN_ANOMALY": 259.1892, "EPHEMERIS_TYPE": 0, "CLASSIFICATION_TYPE": "U", "NORAD_CAT_ID": 44299, "ELEMENT_SET_NO": 999, "REV_AT_EPOCH": 5125, "BSTAR": 0, "MEAN_MOTION_DOT": 1.18e-06, "MEAN_MOTION_DDOT": 0}, "tle": {"line1": "1 44299U 19030A   25361.02658102  .00000118  00000+0  00000+0 0  9990", "line2": "2 44299  64.3665 198.4112 0008617 283.8856 259.1892  2.13102128 51257"}}, "geometry": {"type": "Point", "coordinates": [12.532910901400879, 12.013843061240834]}}, {"type": "Feature", "properties": {"norad_id": 44337, "name": "BEIDOU-3 IGSO-2 (C39)", "group": "gnss", "lat": -36.32057702377607, "lon": 11.090451524315366, "alt_km": 35646.03422306352, "timestamp": "2025-12-27T11:23:20.141317+00:00", "meta": {"OBJECT_NAME": "BEIDOU-3 IGSO-2 (C39)", "OBJECT_ID": "2019-035A", "EPOCH": "2025-12-26T08:27:52.331328", "MEAN_MOTION": 1.00266958, "ECCENTRICITY": 0.0037903, "INCLINATION": 55.2292, "RA_OF_ASC_NODE": 160.3818, "ARG_OF_PERICENTER": 202.693, "MEAN_ANOMALY": 338.2763, "EPHEMERIS_TYPE": 0, "CLASSIFICATION_TYPE": "U", "NORAD_CAT_ID": 44337, "ELEMENT_SET_NO": 999, "REV_AT_EPOCH": 2393, "BSTAR": 0, "MEAN_MOTION_DOT": -6e-07, "MEAN_MOTION_DDOT": 0}, "tle": {"line1": "1 44337U 19035A   25360.35268902 -.00000060  00000+0  00000+0 0  9995", "line2": "2 44337  55.2292 160.3818 0037903 202.6930 338.2763  1.00266958 23935"}}, "geometry": {"type": "Point", "coordinates": [11.090451524315366, -36.32057702377607]}}, {"type": "Feature", "properties": {"norad_id": 44506, "name": "GPS BIII-2  (PRN 18)", "group": "gnss", "lat": -45.81914134388753, "lon": -157.47646287602964, "alt_km": 20072.146541964987, "timestamp": "2025-12-27T11:23:20.141335+00:00", "meta": {"OBJECT_NAME": "GPS BIII-2  (PRN 18)", "OBJECT_ID": "2019-056A", "EPOCH": "2025-12-26T20:32:24.377280", "MEAN_MOTION": 2.0056645, "ECCENTRICITY": 0.00577777, "INCLINATION": 55.7161, "RA_OF_ASC_NODE": 337.993, "ARG_OF_PERICENTER": 198.6833, "MEAN_ANOMALY": 314.3411, "EPHEMERIS_TYPE": 0, "CLASSIFICATION_TYPE": "U", "NORAD_CAT_ID": 44506, "ELEMENT_SET_NO": 999, "REV_AT_EPOCH": 4661, "BSTAR": 0, "MEAN_MOTION_DOT": -5.9e-07, "MEAN_MOTION_DDOT": 0}, "tle": {"line1": "1 44506U 19056A   25360.85583770 -.00000059  00000+0  00000+0 0  9992", "line2": "2 44506  55.7161 337.9930 0057777 198.6833 314.3411  2.00566450 46613"}}, "geometry": {"type": "Point", "coordinates": [-157.47646287602964, -45.81914134388753]}}]}